NORAD_CAT_ID,OBJECT_NAME,OBJECT_TYPE,EPOCH,MEAN_MOTION,ECCENTRICITY,INCLINATION,RA_OF_ASC_NODE,ARG_OF_PERICENTER,MEAN_ANOMALY,BSTAR,MEAN_MOTION_DOT,MEAN_MOTION_DDOT,TLE_LINE0,TLE_LINE1,TLE_LINE2,SEMIMAJOR_AXIS,PERIOD,APOGEE,PERIGEE,DECAYED
53611.0,STARLINK-4650,PAYLOAD,2023-05-10 11:54:19,15.08837861,0.0001147,53.2148,197.029,90.301,269.8114,6.5919e-05,7.61e-06,0.0,0 STARLINK-4650,1 53611U 22104Z   23130.49605710  .00000761  00000-0  65919-4 0  9994,2 53611  53.2148 197.0290 0001147  90.3010 269.8114 15.08837861 39623,6917.887,95.438,540.545,538.958,0.0
53611.0,STARLINK-4650,PAYLOAD,2023-05-10 21:26:38,15.08839428,0.0001018,53.2144,195.244,89.5995,270.5113,8.4467e-05,1.057e-05,0.0,0 STARLINK-4650,1 53611U 22104Z   23130.89349708  .00001057  00000-0  84467-4 0  9998,2 53611  53.2144 195.2440 0001018  89.5995 270.5113 15.08839428 39680,6917.882,95.438,540.451,539.043,0.0
53611.0,STARLINK-4650,PAYLOAD,2023-05-11 10:09:43,15.08841844,0.0001168,53.2148,192.8661,82.5415,277.571,9.149e-05,1.169e-05,0.0,0 STARLINK-4650,1 53611U 22104Z   23131.42341733  .00001169  00000-0  91490-4 0  9996,2 53611  53.2148 192.8661 0001168  82.5415 277.5710 15.08841844 39762,6917.875,95.437,540.548,538.932,0.0
53611.0,STARLINK-4650,PAYLOAD,2023-05-11 21:17:25,15.08842039,0.0001202,53.2148,190.7844,81.8484,278.2644,9.8387e-05,1.278e-05,0.0,0 STARLINK-4650,1 53611U 22104Z   23131.88709738  .00001278  00000-0  98387-4 0  9992,2 53611  53.2148 190.7844 0001202  81.8484 278.2644 15.08842039 39838,6917.874,95.437,540.571,538.908,0.0
53611.0,STARLINK-4650,PAYLOAD,2023-05-11 22:52:48,15.08838949,0.0001236,53.2147,190.4872,82.6599,277.4533,0.00017849,2.554e-05,0.0,0 STARLINK-4650,1 53611U 22104Z   23131.95333934  .00002554  00000-0  17849-3 0  9992,2 53611  53.2147 190.4872 0001236  82.6599 277.4533 15.08838949 39156,6917.884,95.438,540.604,538.894,0.0
53611.0,STARLINK-4650,PAYLOAD,2023-05-12 21:08:12,15.08837416,0.0001215,53.2145,186.3237,84.516,275.5971,9.2822e-05,1.19e-05,0.0,0 STARLINK-4650,1 53611U 22104Z   23132.88070295  .00001190  00000-0  92822-4 0  9993,2 53611  53.2145 186.3237 0001215  84.5160 275.5971 15.08837416 39989,6917.888,95.438,540.594,538.913,0.0
53611.0,STARLINK-4650,PAYLOAD,2023-05-13 09:51:17,15.08836593,0.0001231,53.2149,183.9427,93.858,266.2553,3.6641e-05,2.95e-06,0.0,0 STARLINK-4650,1 53611U 22104Z   23133.41062481  .00000295  00000-0  36641-4 0  9993,2 53611  53.2149 183.9427 0001231  93.8580 266.2553 15.08836593 39375,6917.891,95.438,540.607,538.904,0.0
53611.0,STARLINK-4650,PAYLOAD,2023-05-13 13:02:04,15.08837542,0.0001199,53.2152,183.3496,91.9425,268.1704,4.8815e-05,4.89e-06,0.0,0 STARLINK-4650,1 53611U 22104Z   23133.54310377  .00000489  00000-0  48815-4 0  9998,2 53611  53.2152 183.3496 0001199  91.9425 268.1704 15.08837542 40083,6917.888,95.438,540.582,538.923,0.0
53611.0,STARLINK-4650,PAYLOAD,2023-05-14 06:31:17,15.08870415,0.0001437,53.2148,180.078,73.3917,286.7233,-0.00038767,-6.458e-05,0.0,0 STARLINK-4650,1 53611U 22104Z   23134.27173319 -.00006458  00000-0 -38767-3 0  9990,2 53611  53.2148 180.0780 0001437  73.3917 286.7233 15.08870415 39507,6917.787,95.436,540.647,538.658,0.0
53611.0,STARLINK-4650,PAYLOAD,2023-05-14 09:42:04,15.08840069,0.0001238,53.2148,179.4834,77.3311,282.782,8.7469e-05,1.104e-05,0.0,0 STARLINK-4650,1 53611U 22104Z   23134.40422237  .00001104  00000-0  87469-4 0  9996,2 53611  53.2148 179.4834 0001238  77.3311 282.7820 15.08840069 39522,6917.88,95.438,540.602,538.889,0.0
53611.0,STARLINK-4650,PAYLOAD,2023-05-14 12:52:50,15.08843409,0.0001237,53.2149,178.8886,77.4617,282.6514,0.00010164,1.33e-05,0.0,0 STARLINK-4650,1 53611U 22104Z   23134.53669945  .00001330  00000-0  10164-3 0  9997,2 53611  53.2149 178.8886 0001237  77.4617 282.6514 15.08843409 40232,6917.87,95.437,540.591,538.879,0.0
53611.0,STARLINK-4650,PAYLOAD,2023-05-15 09:32:52,15.08837144,0.0001239,53.2155,175.0237,90.7995,269.3139,0.00011177,1.491e-05,0.0,0 STARLINK-4650,1 53611U 22104Z   23135.39782420  .00001491  00000-0  11177-3 0  9999,2 53611  53.2155 175.0237 0001239  90.7995 269.3139 15.08837144 40365,6917.889,95.438,540.611,538.897,0.0
53611.0,STARLINK-4650,PAYLOAD,2023-05-15 19:05:11,15.08836516,0.0001215,53.2152,173.2397,89.938,270.1751,4.1175e-05,3.67e-06,0.0,0 STARLINK-4650,1 53611U 22104Z   23135.79526685  .00000367  00000-0  41175-4 0  9995,2 53611  53.2152 173.2397 0001215  89.9380 270.1751 15.08836516 39732,6917.891,95.438,540.597,538.916,0.0
53611.0,STARLINK-4650,PAYLOAD,2023-05-16 09:23:39,15.0884034,0.0001171,53.2149,170.5625,87.0709,273.0417,1.5818e-05,-3.6e-07,0.0,0 STARLINK-4650,1 53611U 22104Z   23136.39142531 -.00000036  00000-0  15818-4 0  9995,2 53611  53.2149 170.5625 0001171  87.0709 273.0417 15.08840340 40516,6917.879,95.438,540.554,538.934,0.0
53611.0,STARLINK-4650,PAYLOAD,2023-05-16 18:55:58,15.08839058,0.0001165,53.2147,168.7782,86.7418,273.3707,9.2621e-06,-1.4e-06,0.0,0 STARLINK-4650,1 53611U 22104Z   23136.78886588 -.00000140  00000-0  92621-5 0  9999,2 53611  53.2147 168.7782 0001165  86.7418 273.3707 15.08839058 40578,6917.883,95.438,540.554,538.942,0.0
53611.0,STARLINK-4650,PAYLOAD,2023-05-17 01:17:30,15.08838166,0.0001136,53.215,167.5882,83.5246,276.5875,4.3787e-05,4.09e-06,0.0,0 STARLINK-4650,1 53611U 22104Z   23137.05382552  .00000409  00000-0  43787-4 0  9997,2 53611  53.2150 167.5882 0001136  83.5246 276.5875 15.08838166 39929,6917.886,95.438,540.537,538.965,0.0
53611.0,STARLINK-4650,PAYLOAD,2023-05-17 18:46:45,15.0883873,0.0001164,53.2151,164.3167,82.7112,277.4013,4.6601e-05,4.54e-06,0.0,0 STARLINK-4650,1 53611U 22104Z   23137.78246566  .00000454  00000-0  46601-4 0  9999,2 53611  53.2151 164.3167 0001164  82.7112 277.4013 15.08838730 40726,6917.884,95.438,540.555,538.944,0.0
53611.0,STARLINK-4650,PAYLOAD,2023-05-18 09:05:13,15.08838759,0.0001176,53.2153,161.6399,86.1751,273.9375,4.7444e-05,4.67e-06,0.0,0 STARLINK-4650,1 53611U 22104Z   23138.37862576  .00000467  00000-0  47444-4 0  9990,2 53611  53.2153 161.6399 0001176  86.1751 273.9375 15.08838759 40122,6917.884,95.438,540.563,538.936,0.0
53611.0,STARLINK-4650,PAYLOAD,2023-05-18 18:37:32,15.08837278,0.00012,53.2153,159.8555,83.8349,276.278,3.1935e-05,2.2e-06,0.0,0 STARLINK-4650,1 53611U 22104Z   23138.77606748  .00000220  00000-0  31935-4 0  9996,2 53611  53.2153 159.8555 0001200  83.8349 276.2780 15.08837278 40873,6917.889,95.438,540.584,538.924,0.0
53611.0,STARLINK-4650,PAYLOAD,2023-05-19 18:28:19,15.08839924,0.0001184,53.2151,155.3948,83.3189,276.7938,3.8423e-05,3.24e-06,0.0,0 STARLINK-4650,1 53611U 22104Z   23139.76966650  .00000324  00000-0  38423-4 0  9991,2 53611  53.2151 155.3948 0001184  83.3189 276.7938 15.08839924 40337,6917.881,95.438,540.565,538.927,0.0
53611.0,STARLINK-4650,PAYLOAD,2023-05-20 18:19:05,15.08844854,0.0001193,53.2153,150.9344,82.3166,277.7961,7.5304e-05,9.11e-06,0.0,0 STARLINK-4650,1 53611U 22104Z   23140.76326124  .00000911  00000-0  75304-4 0  9990,2 53611  53.2153 150.9344 0001193  82.3166 277.7961 15.08844854 41172,6917.866,95.437,540.556,538.905,0.0
53611.0,STARLINK-4650,PAYLOAD,2023-05-21 10:12:56,15.08845772,0.0001152,53.2153,147.9605,84.1951,275.9172,8.454e-05,1.058e-05,0.0,0 STARLINK-4650,1 53611U 22104Z   23141.42565885  .00001058  00000-0  84540-4 0  9998,2 53611  53.2153 147.9605 0001152  84.1951 275.9172 15.08845772 40583,6917.863,95.437,540.525,538.931,0.0
53611.0,STARLINK-4650,PAYLOAD,2023-05-22 05:17:35,15.08836424,0.0001188,53.2149,144.3909,87.9511,272.1617,-2.4149e-05,-6.72e-06,0.0,0 STARLINK-4650,1 53611U 22104Z   23142.22054814 -.00000672  00000-0 -24149-4 0  9994,2 53611  53.2149 144.3909 0001188  87.9511 272.1617 15.08836424 40709,6917.891,95.438,540.578,538.934,0.0
53611.0,STARLINK-4650,PAYLOAD,2023-05-22 22:46:50,15.088359,0.0001216,53.215,141.1204,86.9768,273.1363,-3.0156e-05,-7.68e-06,0.0,0 STARLINK-4650,1 53611U 22104Z   23142.94919017 -.00000768  00000-0 -30156-4 0  9999,2 53611  53.2150 141.1204 0001216  86.9768 273.1363 15.08835900 41505,6917.893,95.438,540.599,538.917,0.0
53611.0,STARLINK-4650,PAYLOAD,2023-05-23 06:43:45,15.08839642,0.0001181,53.2151,139.634,85.581,274.5317,6.7639e-06,-1.8e-06,0.0,0 STARLINK-4650,1 53611U 22104Z   23143.28038634 -.00000180  00000-0  67639-5 0  9998,2 53611  53.2151 139.6340 0001181  85.5810 274.5317 15.08839642 40862,6917.881,95.438,540.563,538.929,0.0
53611.0,STARLINK-4650,PAYLOAD,2023-05-23 16:16:04,15.08840333,0.0001134,53.2158,137.851,85.32,274.7921,-2.8999e-05,-7.49e-06,0.0,0 STARLINK-4650,1 53611U 22104Z   23143.67782727 -.00000749  00000-0 -28999-4 0  9997,2 53611  53.2158 137.8510 0001134  85.3200 274.7921 15.08840333 41613,6917.879,95.438,540.529,538.96,0.0
53611.0,STARLINK-4650,PAYLOAD,2023-05-24 06:34:32,15.0883673,0.0001166,53.2159,135.1747,89.3946,270.7179,7.8388e-05,9.6e-06,0.0,0 STARLINK-4650,1 53611U 22104Z   23144.27398858  .00000960  00000-0  78388-4 0  9992,2 53611  53.2159 135.1747 0001166  89.3946 270.7179 15.08836730 41700,6917.89,95.438,540.562,538.949,0.0
53611.0,STARLINK-4650,PAYLOAD,2023-05-26 04:40:44,15.08836389,0.0001267,53.2161,126.5524,96.7715,263.3421,1.727e-05,-1.3e-07,0.0,0 STARLINK-4650,1 53611U 22104Z   23146.19495502 -.00000013  00000-0  17270-4 0  9992,2 53611  53.2161 126.5524 0001267  96.7715 263.3421 15.08836389 41302,6917.891,95.438,540.633,538.88,0.0
53611.0,STARLINK-4650,PAYLOAD,2023-05-26 06:16:07,15.08837579,0.0001254,53.216,126.2548,96.2592,263.8543,2.5904e-05,1.24e-06,0.0,0 STARLINK-4650,1 53611U 22104Z   23146.26119406  .00000124  00000-0  25904-4 0  9991,2 53611  53.2160 126.2548 0001254  96.2592 263.8543 15.08837579 42008,6917.888,95.438,540.62,538.885,0.0
53611.0,STARLINK-4650,PAYLOAD,2023-05-26 22:09:58,15.08834739,0.0001242,53.2159,123.2791,94.6902,265.4232,1.3068e-05,-8e-07,0.0,0 STARLINK-4650,1 53611U 22104Z   23146.92359775 -.00000080  00000-0  13068-4 0  9999,2 53611  53.2159 123.2791 0001242  94.6902 265.4232 15.08834739 42106,6917.896,95.438,540.621,538.902,0.0
